<?xml version="1.0" encoding="UTF-8"?>
<ndm xmlns:xsi="http://www.w3.org/2001/XMLSchema-instance" xsi:noNamespaceSchemaLocation="https://sanaregistry.org/r/ndmxml_unqualified/ndmxml-2.0.0-master-2.0.xsd">
<omm id="CCSDS_OMM_VERS" version="2.0">
<header><CREATION_DATE/><ORIGINATOR/></header><body><segment><metadata><OBJECT_NAME>ORBCOMM FM24</OBJECT_NAME><OBJECT_ID>1998-053D</OBJECT_ID><CENTER_NAME>EARTH</CENTER_NAME><REF_FRAME>TEME</REF_FRAME><TIME_SYSTEM>UTC</TIME_SYSTEM><MEAN_ELEMENT_THEORY>SGP4</MEAN_ELEMENT_THEORY></metadata><data><meanElements><EPOCH>2024-08-12T14:52:38.437248</EPOCH><MEAN_MOTION>14.36108402</MEAN_MOTION><ECCENTRICITY>.0001692</ECCENTRICITY><INCLINATION>45.0080</INCLINATION><RA_OF_ASC_NODE>290.2049</RA_OF_ASC_NODE><ARG_OF_PERICENTER>227.9194</ARG_OF_PERICENTER><MEAN_ANOMALY>132.1510</MEAN_ANOMALY></meanElements><tleParameters><EPHEMERIS_TYPE>0</EPHEMERIS_TYPE><CLASSIFICATION_TYPE>U</CLASSIFICATION_TYPE><NORAD_CAT_ID>25478</NORAD_CAT_ID><ELEMENT_SET_NO>999</ELEMENT_SET_NO><REV_AT_EPOCH>35305</REV_AT_EPOCH><BSTAR>.25612E-2</BSTAR><MEAN_MOTION_DOT>.7392E-4</MEAN_MOTION_DOT><MEAN_MOTION_DDOT>0</MEAN_MOTION_DDOT></tleParameters></data></segment></body></omm>
<omm id="CCSDS_OMM_VERS" version="2.0">
<header><CREATION_DATE/><ORIGINATOR/></header><body><segment><metadata><OBJECT_NAME>ORBCOMM FM26</OBJECT_NAME><OBJECT_ID>1998-053F</OBJECT_ID><CENTER_NAME>EARTH</CENTER_NAME><REF_FRAME>TEME</REF_FRAME><TIME_SYSTEM>UTC</TIME_SYSTEM><MEAN_ELEMENT_THEORY>SGP4</MEAN_ELEMENT_THEORY></metadata><data><meanElements><EPOCH>2024-08-12T20:11:15.393696</EPOCH><MEAN_MOTION>14.35479409</MEAN_MOTION><ECCENTRICITY>.0005852</ECCENTRICITY><INCLINATION>45.0063</INCLINATION><RA_OF_ASC_NODE>281.9481</RA_OF_ASC_NODE><ARG_OF_PERICENTER>185.8116</ARG_OF_PERICENTER><MEAN_ANOMALY>174.2664</MEAN_ANOMALY></meanElements><tleParameters><EPHEMERIS_TYPE>0</EPHEMERIS_TYPE><CLASSIFICATION_TYPE>U</CLASSIFICATION_TYPE><NORAD_CAT_ID>25480</NORAD_CAT_ID><ELEMENT_SET_NO>999</ELEMENT_SET_NO><REV_AT_EPOCH>35331</REV_AT_EPOCH><BSTAR>.34765E-2</BSTAR><MEAN_MOTION_DOT>.9962E-4</MEAN_MOTION_DOT><MEAN_MOTION_DDOT>0</MEAN_MOTION_DDOT></tleParameters></data></segment></body></omm>
<omm id="CCSDS_OMM_VERS" version="2.0">
<header><CREATION_DATE/><ORIGINATOR/></header><body><segment><metadata><OBJECT_NAME>ORBCOMM FM27</OBJECT_NAME><OBJECT_ID>1998-053G</OBJECT_ID><CENTER_NAME>EARTH</CENTER_NAME><REF_FRAME>TEME</REF_FRAME><TIME_SYSTEM>UTC</TIME_SYSTEM><MEAN_ELEMENT_THEORY>SGP4</MEAN_ELEMENT_THEORY></metadata><data><meanElements><EPOCH>2024-08-12T13:49:53.646240</EPOCH><MEAN_MOTION>14.36081460</MEAN_MOTION><ECCENTRICITY>.0002665</ECCENTRICITY><INCLINATION>45.0053</INCLINATION><RA_OF_ASC_NODE>288.9209</RA_OF_ASC_NODE><ARG_OF_PERICENTER>261.7307</ARG_OF_PERICENTER><MEAN_ANOMALY>98.3239</MEAN_ANOMALY></meanElements><tleParameters><EPHEMERIS_TYPE>0</EPHEMERIS_TYPE><CLASSIFICATION_TYPE>U</CLASSIFICATION_TYPE><NORAD_CAT_ID>25481</NORAD_CAT_ID><ELEMENT_SET_NO>999</ELEMENT_SET_NO><REV_AT_EPOCH>35331</REV_AT_EPOCH><BSTAR>.24419E-2</BSTAR><MEAN_MOTION_DOT>.7037E-4</MEAN_MOTION_DOT><MEAN_MOTION_DDOT>0</MEAN_MOTION_DDOT></tleParameters></data></segment></body></omm>
<omm id="CCSDS_OMM_VERS" version="2.0">
<header><CREATION_DATE/><ORIGINATOR/></header><body><segment><metadata><OBJECT_NAME>ORBCOMM FM28</OBJECT_NAME><OBJECT_ID>1998-053H</OBJECT_ID><CENTER_NAME>EARTH</CENTER_NAME><REF_FRAME>TEME</REF_FRAME><TIME_SYSTEM>UTC</TIME_SYSTEM><MEAN_ELEMENT_THEORY>SGP4</MEAN_ELEMENT_THEORY></metadata><data><meanElements><EPOCH>2024-08-12T17:51:14.096160</EPOCH><MEAN_MOTION>14.36477884</MEAN_MOTION><ECCENTRICITY>.0004143</ECCENTRICITY><INCLINATION>45.0040</INCLINATION><RA_OF_ASC_NODE>226.2909</RA_OF_ASC_NODE><ARG_OF_PERICENTER>227.6075</ARG_OF_PERICENTER><MEAN_ANOMALY>132.4422</MEAN_ANOMALY></meanElements><tleParameters><EPHEMERIS_TYPE>0</EPHEMERIS_TYPE><CLASSIFICATION_TYPE>U</CLASSIFICATION_TYPE><NORAD_CAT_ID>25482</NORAD_CAT_ID><ELEMENT_SET_NO>999</ELEMENT_SET_NO><REV_AT_EPOCH>35397</REV_AT_EPOCH><BSTAR>.24071E-2</BSTAR><MEAN_MOTION_DOT>.6992E-4</MEAN_MOTION_DOT><MEAN_MOTION_DDOT>0</MEAN_MOTION_DDOT></tleParameters></data></segment></body></omm>
<omm id="CCSDS_OMM_VERS" version="2.0">
<header><CREATION_DATE/><ORIGINATOR/></header><body><segment><metadata><OBJECT_NAME>ORBCOMM FM30</OBJECT_NAME><OBJECT_ID>1999-065A</OBJECT_ID><CENTER_NAME>EARTH</CENTER_NAME><REF_FRAME>TEME</REF_FRAME><TIME_SYSTEM>UTC</TIME_SYSTEM><MEAN_ELEMENT_THEORY>SGP4</MEAN_ELEMENT_THEORY></metadata><data><meanElements><EPOCH>2024-08-12T20:43:58.017216</EPOCH><MEAN_MOTION>14.35612873</MEAN_MOTION><ECCENTRICITY>.000571</ECCENTRICITY><INCLINATION>45.0309</INCLINATION><RA_OF_ASC_NODE>107.4617</RA_OF_ASC_NODE><ARG_OF_PERICENTER>268.3133</ARG_OF_PERICENTER><MEAN_ANOMALY>91.7061</MEAN_ANOMALY></meanElements><tleParameters><EPHEMERIS_TYPE>0</EPHEMERIS_TYPE><CLASSIFICATION_TYPE>U</CLASSIFICATION_TYPE><NORAD_CAT_ID>25980</NORAD_CAT_ID><ELEMENT_SET_NO>999</ELEMENT_SET_NO><REV_AT_EPOCH>29011</REV_AT_EPOCH><BSTAR>.32438E-2</BSTAR><MEAN_MOTION_DOT>.931E-4</MEAN_MOTION_DOT><MEAN_MOTION_DDOT>0</MEAN_MOTION_DDOT></tleParameters></data></segment></body></omm>
<omm id="CCSDS_OMM_VERS" version="2.0">
<header><CREATION_DATE/><ORIGINATOR/></header><body><segment><metadata><OBJECT_NAME>ORBCOMM FM31</OBJECT_NAME><OBJECT_ID>1999-065B</OBJECT_ID><CENTER_NAME>EARTH</CENTER_NAME><REF_FRAME>TEME</REF_FRAME><TIME_SYSTEM>UTC</TIME_SYSTEM><MEAN_ELEMENT_THEORY>SGP4</MEAN_ELEMENT_THEORY></metadata><data><meanElements><EPOCH>2024-08-13T02:35:44.248992</EPOCH><MEAN_MOTION>14.35594420</MEAN_MOTION><ECCENTRICITY>.0003192</ECCENTRICITY><INCLINATION>45.0223</INCLINATION><RA_OF_ASC_NODE>99.9369</RA_OF_ASC_NODE><ARG_OF_PERICENTER>298.3857</ARG_OF_PERICENTER><MEAN_ANOMALY>61.6668</MEAN_ANOMALY></meanElements><tleParameters><EPHEMERIS_TYPE>0</EPHEMERIS_TYPE><CLASSIFICATION_TYPE>U</CLASSIFICATION_TYPE><NORAD_CAT_ID>25981</NORAD_CAT_ID><ELEMENT_SET_NO>999</ELEMENT_SET_NO><REV_AT_EPOCH>29067</REV_AT_EPOCH><BSTAR>.15333E-2</BSTAR><MEAN_MOTION_DOT>.432E-4</MEAN_MOTION_DOT><MEAN_MOTION_DDOT>0</MEAN_MOTION_DDOT></tleParameters></data></segment></body></omm>
<omm id="CCSDS_OMM_VERS" version="2.0">
<header><CREATION_DATE/><ORIGINATOR/></header><body><segment><metadata><OBJECT_NAME>ORBCOMM FM32</OBJECT_NAME><OBJECT_ID>1999-065C</OBJECT_ID><CENTER_NAME>EARTH</CENTER_NAME><REF_FRAME>TEME</REF_FRAME><TIME_SYSTEM>UTC</TIME_SYSTEM><MEAN_ELEMENT_THEORY>SGP4</MEAN_ELEMENT_THEORY></metadata><data><meanElements><EPOCH>2024-08-13T03:43:49.215072</EPOCH><MEAN_MOTION>14.34605315</MEAN_MOTION><ECCENTRICITY>.0005558</ECCENTRICITY><INCLINATION>45.0150</INCLINATION><RA_OF_ASC_NODE>114.1876</RA_OF_ASC_NODE><ARG_OF_PERICENTER>298.8366</ARG_OF_PERICENTER><MEAN_ANOMALY>61.1922</MEAN_ANOMALY></meanElements><tleParameters><EPHEMERIS_TYPE>0</EPHEMERIS_TYPE><CLASSIFICATION_TYPE>U</CLASSIFICATION_TYPE><NORAD_CAT_ID>25982</NORAD_CAT_ID><ELEMENT_SET_NO>999</ELEMENT_SET_NO><REV_AT_EPOCH>29046</REV_AT_EPOCH><BSTAR>.15833E-2</BSTAR><MEAN_MOTION_DOT>.4377E-4</MEAN_MOTION_DOT><MEAN_MOTION_DDOT>0</MEAN_MOTION_DDOT></tleParameters></data></segment></body></omm>

</ndm>
