ORBCOMM FM24            
1 25478U 98053D   24225.61988932  .00007392  00000+0  25612-2 0  9990
2 25478  45.0080 290.2049 0001692 227.9194 132.1510 14.36108402353051
ORBCOMM FM26            
1 25480U 98053F   24225.84115039  .00009962  00000+0  34765-2 0  9992
2 25480  45.0063 281.9481 0005852 185.8116 174.2664 14.35479409353313
ORBCOMM FM27            
1 25481U 98053G   24225.57631535  .00007037  00000+0  24419-2 0  9993
2 25481  45.0053 288.9209 0002665 261.7307  98.3239 14.36081460353314
ORBCOMM FM28            
1 25482U 98053H   24225.74391315  .00006992  00000+0  24071-2 0  9995
2 25482  45.0040 226.2909 0004143 227.6075 132.4422 14.36477884353974
ORBCOMM FM30            
1 25980U 99065A   24225.86386594  .00009310  00000+0  32438-2 0  9991
2 25980  45.0309 107.4617 0005710 268.3133  91.7061 14.35612873290119
ORBCOMM FM31            
1 25981U 99065B   24226.10815103  .00004320  00000+0  15333-2 0  9994
2 25981  45.0223  99.9369 0003192 298.3857  61.6668 14.35594420290679
ORBCOMM FM32            
1 25982U 99065C   24226.15543073  .00004377  00000+0  15833-2 0  9991
2 25982  45.0150 114.1876 0005558 298.8366  61.1922 14.34605315290460
